     2.10           G: GLONASS NAV DATA                     RINEX VERSION / TYPE
teqc  2015Jun23                         20220315 01:25:41UTCPGM / RUN BY / DATE
Linux 2.4.21-27.ELsmp|Opteron|gcc -static|Linux x86_64|=+   COMMENT
  2022     2    19    2.235174179077D-08                    CORR TO SYSTEM TIME
                                                            END OF HEADER
15 22  2 20 23 15  0.0 9.804777801037D-05-0.000000000000D+00 8.280000000000D+04
   -2.035144042969D+03-2.543525695801D-01 2.793967723846D-09 0.000000000000D+00
    2.344106103516D+04 1.331167221069D+00 1.862645149231D-09 0.000000000000D+00
   -9.833564453125D+03 3.221817970276D+00 0.000000000000D+00 0.000000000000D+00
17 22  2 20 23 15  0.0 5.033910274506D-04 2.728484105319D-12 8.280000000000D+04
   -4.595127441406D+03-2.112870216370D+00 9.313225746155D-10 0.000000000000D+00
    1.028898974609D+04-2.321285247803D+00 0.000000000000D+00 4.000000000000D+00
   -2.286915478516D+04-6.223516464233D-01 2.793967723846D-09 0.000000000000D+00
 3 22  2 20 23 15  0.0 5.186442285776D-05 0.000000000000D+00 8.280000000000D+04
   -1.682185986328D+04-2.016274452209D+00 9.313225746155D-10 0.000000000000D+00
    1.145393408203D+04 5.999984741211D-01-1.862645149231D-09 5.000000000000D+00
    1.538618603516D+04-2.663957595825D+00-1.862645149231D-09 0.000000000000D+00
14 22  2 20 23 15  0.0 7.458124309778D-05 0.000000000000D+00 8.280000000000D+04
   -1.024521240234D+04 4.126501083374D-01 2.793967723846D-09 0.000000000000D+00
    2.212241943359D+04-9.517812728882D-01 0.000000000000D+00-7.000000000000D+00
    7.526704101562D+03 3.360236167908D+00-1.862645149231D-09 0.000000000000D+00
18 22  2 20 23 15  0.0 1.079440116882D-04 9.094947017729D-13 8.280000000000D+04
    9.085606933594D+03-1.165786743164D+00 2.793967723846D-09 0.000000000000D+00
    1.923069677734D+04-1.558149337769D+00 2.793967723846D-09-3.000000000000D+00
   -1.410853076172D+04-2.865486145020D+00 9.313225746155D-10 0.000000000000D+00
19 22  2 20 23 15  0.0-1.789359375834D-04-9.094947017729D-13 8.280000000000D+04
    1.708204638672D+04 2.828512191772D-01 2.793967723846D-09 0.000000000000D+00
    1.892080371094D+04-6.816291809082D-02 3.725290298462D-09 3.000000000000D+00
    9.845849609375D+02-3.610466003418D+00-0.000000000000D+00 0.000000000000D+00
 4 22  2 20 23 15  0.0 1.286203041673D-04 1.818989403546D-12 8.421000000000D+04
    3.903212890625D+02-3.065390586853D+00 9.313225746155D-10 0.000000000000D+00
    1.097176269531D+04 7.235498428345D-01 0.000000000000D+00 6.000000000000D+00
    2.305273632812D+04-2.938156127930D-01-2.793967723846D-09 0.000000000000D+00
15 22  2 20 23 45  0.0 9.804777801037D-05-0.000000000000D+00 8.460000000000D+04
   -2.174177734375D+03 6.544780731201D-02 2.793967723846D-09 0.000000000000D+00
    2.513654785156D+04 5.291814804077D-01 9.313225746155D-10 0.000000000000D+00
   -3.728813964844D+03 3.517145156860D+00-0.000000000000D+00 0.000000000000D+00
18 22  2 20 23 45  0.0 1.079468056560D-04 9.094947017729D-13 8.460000000000D+04
    6.347595703125D+03-1.869785308838D+00 2.793967723846D-09 0.000000000000D+00
    1.620574072266D+04-1.755165100098D+00 1.862645149231D-09-3.000000000000D+00
   -1.865517138672D+04-2.153452873230D+00 1.862645149231D-09 0.000000000000D+00
 3 22  2 20 23 45  0.0 5.186628550291D-05 0.000000000000D+00 8.460000000000D+04
   -1.975991650391D+04-1.230433464050D+00 0.000000000000D+00 0.000000000000D+00
    1.259229980469D+04 6.238059997559D-01-1.862645149231D-09 5.000000000000D+00
    1.005819482422D+04-3.217740058899D+00-9.313225746155D-10 0.000000000000D+00
14 22  2 20 23 45  0.0 7.458217442036D-05 0.000000000000D+00 8.460000000000D+04
   -9.490990722656D+03 3.852901458740D-01 1.862645149231D-09 0.000000000000D+00
    1.966078515625D+04-1.768324851990D+00-0.000000000000D+00-7.000000000000D+00
    1.320627001953D+04 2.909454345703D+00-1.862645149231D-09 0.000000000000D+00
19 22  2 20 23 45  0.0-1.789387315512D-04-9.094947017729D-13 8.460000000000D+04
    1.700293066406D+04-3.973808288574D-01 3.725290298462D-09 0.000000000000D+00
    1.821288769531D+04-6.845874786377D-01 3.725290298462D-09 3.000000000000D+00
   -5.468352050781D+03-3.512904167175D+00 0.000000000000D+00 0.000000000000D+00
 4 22  2 20 23 45  0.0 1.286240294576D-04 1.818989403546D-12 8.469000000000D+04
   -4.881542968750D+03-2.746247291565D+00 9.313225746155D-10 0.000000000000D+00
    1.263275537109D+04 1.098653793335D+00-0.000000000000D+00 6.000000000000D+00
    2.164222167969D+04-1.263344764709D+00-2.793967723846D-09 0.000000000000D+00
